id,address,capacity,earthquake,elevation,evacuationSpace,fire,flood_L1,flood_L2,inundation,jurisdiction,latitude,longitude,name,residentsAssociation,sedimentDisaster,stormSurge,telephoneNumber,tunami
jp.takamatsu.smartcity.shelter.EvacuationSpace.1,高松市瀬戸内町18-2,238,○,1.7,○,○,○,△,○,地域振興課,34.34753333,134.03003917,日新小学校跡施設,日新地区コミュニティ協議会,○,△,087-839-2611,△
jp.takamatsu.smartcity.shelter.EvacuationSpace.2,高松市錦町2-14-1,429,○,2.9,○,○,○,△,○,教育総務課,34.34583944,134.04099361,新番丁小学校,二番丁地区コミュニティ協議会,○,△,087-851-1316,△
jp.takamatsu.smartcity.shelter.EvacuationSpace.3,高松市番町1-5-1,315,○,2.5,○,○,○,○,○,埋蔵文化財センター,34.34377306,134.04579889,四番丁小学校跡施設,四番丁コミュニティ協議会,○,△,087-823-2714,○
jp.takamatsu.smartcity.shelter.EvacuationSpace.4,高松市亀岡町10-1,351,○,4.1,○,○,○,○,○,教育総務課,34.33752361,134.03989417,亀阜小学校,亀阜校区コミュニティ協議会,○,△,087-861-2013,○
jp.takamatsu.smartcity.shelter.EvacuationSpace.5,高松市栗林町2-10-7,429,○,6.2,○,○,○,○,○,教育総務課,34.33083306,134.05012111,栗林小学校,栗林校区コミュニティ協議会,○,○,087-861-3438,○
jp.takamatsu.smartcity.shelter.EvacuationSpace.6,高松市花園町2-7-7,310,○,2.5,○,○,○,○,○,教育総務課,34.33344111,134.05785361,花園小学校,花園地区コミュニティ協議会,○,△,087-831-9129,○
jp.takamatsu.smartcity.shelter.EvacuationSpace.7,高松市築地町14-1,279,○,1.6,○,○,○,○,△,地域振興課,34.34125139,134.05681472,築地小学校跡施設,築地地区コミュニティ協議会,○,△,087-839-2611,△
jp.takamatsu.smartcity.shelter.EvacuationSpace.8,高松市末広町5,310,○,2,○,○,○,○,○,総合教育センター,34.34375389,134.05616194,総合教育センター,新塩屋町地区コミュニティ協議会,○,△,087-811-2161,△
jp.takamatsu.smartcity.shelter.EvacuationSpace.9,高松市松並町636-1,306,○,16.3,○,○,○,△,△,教育総務課,34.31556472,134.02853472,鶴尾小学校,鶴尾校区コミュニティ協議会,○,○,087-867-2564,○
jp.takamatsu.smartcity.shelter.EvacuationSpace.10,高松市伏石町845-1,393,○,13.2,○,○,○,○,○,教育総務課,34.31229917,134.05171333,太田小学校,太田地区コミュニティ協議会,○,○,087-865-4433,○
jp.takamatsu.smartcity.shelter.EvacuationSpace.11,高松市太田下町1823-1,393,○,19.9,○,○,○,○,○,教育総務課,34.30652444,134.04418639,太田南小学校,太田南地区コミュニティ協議会,○,○,087-865-9395,○
jp.takamatsu.smartcity.shelter.EvacuationSpace.12,高松市松縄町1138,306,○,9.8,○,○,○,○,○,教育総務課,34.32068722,134.06164556,中央小学校,太田地区コミュニティ協議会,○,○,087-866-2938,○
jp.takamatsu.smartcity.shelter.EvacuationSpace.13,高松市木太町3480-1,324,○,1.7,○,○,○,△,○,教育総務課,34.32505639,134.07648556,木太小学校,木太地区コミュニティ協議会,○,△,087-861-6337,△
jp.takamatsu.smartcity.shelter.EvacuationSpace.14,高松市木太町2613,274,○,1,○,○,○,△,○,教育総務課,34.33625528,134.08043778,木太北部小学校,木太地区コミュニティ協議会,○,△,087-831-4150,△
jp.takamatsu.smartcity.shelter.EvacuationSpace.15,高松市木太町1530-1,324,○,3.2,○,○,○,△,○,教育総務課,34.32080417,134.07471944,木太南小学校,木太地区コミュニティ協議会,○,△,087-866-7295,○
jp.takamatsu.smartcity.shelter.EvacuationSpace.16,高松市高松町398,314,○,4.1,○,○,○,△,○,教育総務課,34.33228972,134.10677444,古高松小学校,古高松地区コミュニティ協議会,○,○,087-841-9204,○
jp.takamatsu.smartcity.shelter.EvacuationSpace.17,高松市新田町甲2605,277,○,3.3,○,○,○,△,○,教育総務課,34.32686222,134.09864194,古高松南小学校,古高松地区コミュニティ協議会,○,△,087-843-2467,○
jp.takamatsu.smartcity.shelter.EvacuationSpace.18,高松市屋島西町1205-1,405,○,16.4,○,○,○,○,△,教育総務課,34.347035,134.09963306,屋島小学校,屋島地区コミュニティ協議会,×,○,087-841-1538,○
jp.takamatsu.smartcity.shelter.EvacuationSpace.19,高松市屋島西町2469,396,○,2.7,○,○,○,△,○,教育総務課,34.350915,134.09065306,屋島西小学校,屋島地区コミュニティ協議会,○,△,087-841-1063,○
jp.takamatsu.smartcity.shelter.EvacuationSpace.20,高松市屋島東町942-1,247,○,2.5,○,○,○,○,○,教育総務課,34.3537625,134.11598694,屋島東小学校,屋島地区コミュニティ協議会,○,△,087-843-8402,△
jp.takamatsu.smartcity.shelter.EvacuationSpace.21,高松市前田東町819-3,315,○,13.3,○,○,△,△,△,教育総務課,34.29588,134.11301944,前田小学校,前田校区コミュニティ協議会,○,○,087-847-6562,○
jp.takamatsu.smartcity.shelter.EvacuationSpace.22,高松市東山崎町207-1,396,○,7.8,○,○,○,△,△,教育総務課,34.30559528,134.09283194,川添小学校,川添地区コミュニティ協議会,○,○,087-847-6055,○
jp.takamatsu.smartcity.shelter.EvacuationSpace.23,高松市林町1108-1,315,○,13.8,○,○,○,○,○,教育総務課,34.30118417,134.07016472,林小学校,林地区コミュニティ協議会,○,○,087-865-6250,○
jp.takamatsu.smartcity.shelter.EvacuationSpace.24,高松市三谷町2173-1,234,○,28.4,○,○,○,○,○,教育総務課,34.27360944,134.06860472,三渓小学校,三谷地区コミュニティ協議会,○,○,087-889-0767,○
jp.takamatsu.smartcity.shelter.EvacuationSpace.25,高松市仏生山町甲2461,405,○,41.2,○,○,○,○,○,教育総務課,34.27413944,134.04763694,仏生山小学校,仏生山地区コミュニティ協議会,○,○,087-889-0549,○
jp.takamatsu.smartcity.shelter.EvacuationSpace.26,あ高松市多肥上町902-2,315,○,25.2,○,○,○,○,○,教育総務課,34.29231528,134.05300278,多肥小学校,多肥地区コミュニティ協議会,○,○,087-889-0537,○
jp.takamatsu.smartcity.shelter.EvacuationSpace.27,高松市一宮町672-1,405,○,33.5,○,○,○,△,○,教育総務課,34.29075917,134.02443861,一宮小学校,一宮地区コミュニティ協議会,○,○,087-885-1764,○
jp.takamatsu.smartcity.shelter.EvacuationSpace.28,高松市円座町1630-2,301,○,38,○,○,○,△,△,教育総務課,34.28495667,134.00452389,円座小学校,円座校区コミュニティ協議会,○,○,087-885-2542,○
jp.takamatsu.smartcity.shelter.EvacuationSpace.29,高松市川部町1552,315,○,53.4,○,○,○,○,△,教育総務課,34.26712278,134.00698528,川岡小学校,川岡校区コミュニティ協議会,○,○,087-885-1253,○
jp.takamatsu.smartcity.shelter.EvacuationSpace.30,高松市御厩町816,405,○,26,○,○,○,○,△,教育総務課,34.30011306,133.99381611,檀紙小学校,檀紙地区コミュニティ協議会,○,○,087-885-1715,○
jp.takamatsu.smartcity.shelter.EvacuationSpace.31,高松市鶴市町374-1,405,○,7.1,○,○,△,△,○,教育総務課,34.32895444,134.0047975,弦打小学校,弦打校区コミュニティ協議会,○,○,087-881-3523,○
jp.takamatsu.smartcity.shelter.EvacuationSpace.32,高松市鬼無町佐藤607-1,315,○,21.9,○,○,○,○,○,教育総務課,34.32669889,133.98803778,鬼無小学校,鬼無地区コミュニティ協議会,○,○,087-881-2413,○
jp.takamatsu.smartcity.shelter.EvacuationSpace.33,高松市香西南町703-1,464,○,2.3,○,○,○,△,△,教育総務課,34.34546083,133.99790028,香西小学校,香西地区コミュニティ協議会,○,△,087-881-3214,△
jp.takamatsu.smartcity.shelter.EvacuationSpace.34,高松市生島町345,315,○,25.4,○,○,○,○,○,教育総務課,34.35779194,133.96827194,下笠居小学校,下笠居地区コミュニティ協議会,○,○,087-881-3011,○
jp.takamatsu.smartcity.shelter.EvacuationSpace.35,高松市女木町236-2,245,△,5.3,○,○,○,○,○,教育総務課,34.39200944,134.05349667,女木小学校,女木地区コミュニティ協議会,○,△,087-839-2611,○
jp.takamatsu.smartcity.shelter.EvacuationSpace.36,高松市男木町165,245,○,12.6,○,○,○,○,○,教育総務課,34.42010361,134.05682333,男木小・中学校,男木地区コミュニティ協議会,△,○,087-873-0506,○
jp.takamatsu.smartcity.shelter.EvacuationSpace.37,高松市川島東町864-1,315,○,21.3,○,○,○,△,△,教育総務課,34.27599278,134.08886111,川島小学校,川島校区コミュニティ協議会,○,○,087-848-0050,○
jp.takamatsu.smartcity.shelter.EvacuationSpace.38,高松市十川西町366-5,315,○,18.1,○,○,○,○,○,教育総務課,34.27514056,134.10269611,十河小学校,十河校区コミュニティ協議会,○,○,087-848-0319,○
jp.takamatsu.smartcity.shelter.EvacuationSpace.39,高松市西植田町2337,229,○,45.8,○,○,○,○,○,教育総務課,34.23884139,134.07888833,植田小学校,植田校区コミュニティ協議会,×,○,087-849-0103,○
jp.takamatsu.smartcity.shelter.EvacuationSpace.40,高松市東植田町2008,245,○,50.7,○,○,○,○,○,教育総務課,34.23871667,134.09762556,東植田小学校,東植田校区コミュニティ協議会,○,○,087-849-0062,○
jp.takamatsu.smartcity.shelter.EvacuationSpace.41,高松市菅沢町339,168,○,323,○,○,○,○,○,教育総務課,34.19368583,134.09807139,東植田小学校菅沢分校,東植田校区コミュニティ協議会,○,○,087-839-2611,○
jp.takamatsu.smartcity.shelter.EvacuationSpace.42,高松市桜町2-12-4,390,○,6.2,○,○,○,△,○,教育総務課,34.32629472,134.05290722,桜町中学校,栗林校区コミュニティ協議会,○,○,087-861-1668,○
jp.takamatsu.smartcity.shelter.EvacuationSpace.43,高松市紫雲町8-25,477,○,2.1,○,○,○,△,△,教育総務課,34.3410425,134.03407222,紫雲中学校,亀阜校区コミュニティ協議会,○,△,087-861-7144,△
jp.takamatsu.smartcity.shelter.EvacuationSpace.44,高松市上福岡町714-1,495,○,1.6,○,○,○,△,○,教育総務課,34.33427194,134.06648361,玉藻中学校,花園地区コミュニティ協議会,○,△,087-861-8196,△
jp.takamatsu.smartcity.shelter.EvacuationSpace.45,高松市松島町2-14-5,721,○,3.1,○,○,○,○,△,教育総務課,34.33868806,134.06216972,高松第一学園（高松第一小・中学校）,松島地区コミュニティ協議会,○,△,087-832-0311,△
jp.takamatsu.smartcity.shelter.EvacuationSpace.46,高松市松並町639-1,375,○,17.1,○,○,○,△,○,教育総務課,34.31513694,134.02639333,鶴尾中学校,鶴尾校区コミュニティ協議会,○,○,087-867-3382,○
jp.takamatsu.smartcity.shelter.EvacuationSpace.47,高松市屋島中町295,362,○,1.8,○,○,○,△,△,教育総務課,34.34105528,134.10488833,屋島中学校,屋島地区コミュニティ協議会,○,△,087-841-2236,△
jp.takamatsu.smartcity.shelter.EvacuationSpace.48,高松市元山町88-2,366,○,7.6,○,○,○,△,○,教育総務課,34.30690056,134.08575778,協和中学校,川添地区コミュニティ協議会,○,○,087-867-5937,○
jp.takamatsu.smartcity.shelter.EvacuationSpace.49,高松市出作町331-2,354,○,32,○,○,○,○,○,教育総務課,34.28317167,134.05085028,龍雲中学校,多肥地区コミュニティ協議会,○,○,087-889-0131,○
jp.takamatsu.smartcity.shelter.EvacuationSpace.50,高松市香西南町565,360,○,2.6,○,○,○,△,△,教育総務課,34.34179167,133.99928083,勝賀中学校,香西地区コミュニティ協議会,○,△,087-881-3141,○
jp.takamatsu.smartcity.shelter.EvacuationSpace.51,高松市一宮町1185-1,396,○,32.3,○,○,○,△,○,教育総務課,34.29222583,134.0251275,一宮中学校,一宮地区コミュニティ協議会,○,○,087-885-1664,○
jp.takamatsu.smartcity.shelter.EvacuationSpace.52,高松市円座町771,354,○,30.3,○,○,○,△,○,教育総務課,34.29535556,134.00882028,香東中学校,円座校区コミュニティ協議会,○,○,087-886-6580,○
jp.takamatsu.smartcity.shelter.EvacuationSpace.53,高松市生島町372-1,396,○,32,○,○,○,○,○,教育総務課,34.35771139,133.96664167,下笠居中学校,下笠居地区コミュニティ協議会,○,○,087-881-2621,○
jp.takamatsu.smartcity.shelter.EvacuationSpace.54,高松市川島東町1257-1,362,○,25.4,○,○,○,○,○,教育総務課,34.26812167,134.09285278,山田中学校,川島校区コミュニティ協議会,○,○,087-848-0071,○
jp.takamatsu.smartcity.shelter.EvacuationSpace.55,高松市太田下町1800,439,○,18.9,○,○,○,○,○,教育総務課,34.30634139,134.04597778,太田中学校,太田南地区コミュニティ協議会,○,○,087-866-1370,○
jp.takamatsu.smartcity.shelter.EvacuationSpace.56,高松市新田町甲190-1,345,○,2.5,○,○,○,△,△,教育総務課,34.33263944,134.10308861,古高松中学校,古高松地区コミュニティ協議会,○,△,087-841-1577,○
jp.takamatsu.smartcity.shelter.EvacuationSpace.57,高松市木太町251,345,○,5.8,○,○,○,○,○,教育総務課,34.32491472,134.06983917,木太中学校,木太地区コミュニティ協議会,○,○,087-866-5588,○
jp.takamatsu.smartcity.shelter.EvacuationSpace.58,高松市鹿角町394,370,○,26.1,○,×,○,△,○,香川大学,34.29923639,134.03327083,香川大学附属中学校（体育館）,一宮地区コミュニティ協議会,○,○,087-886-2121,○
jp.takamatsu.smartcity.shelter.EvacuationSpace.59,高松市桜町2-5-10,953,○,5.2,○,○,○,△,○,高松第一高校,34.32800556,134.05254889,高松第一高校,栗林校区コミュニティ協議会,○,○,087-861-0244,○
jp.takamatsu.smartcity.shelter.EvacuationSpace.60,高松市一宮町531,600,○,37.5,○,×,○,△,○,県高校教育課,34.285377,134.023029,高松南高等学校（体育館）,一宮地区コミュニティ協議会,○,○,087-885-1131,○
jp.takamatsu.smartcity.shelter.EvacuationSpace.61,高松市多肥上町1250,760,○,23.2,○,×,○,○,○,県高校教育課,34.29496222,134.05620222,高松桜井高等学校（体育館）,多肥地区コミュニティ協議会,○,○,087-869-1010,○
jp.takamatsu.smartcity.shelter.EvacuationSpace.62,高松市瀬戸内町22-9,101,○,1.8,○,×,○,△,○,地域振興課,34.3475725,134.03245556,日新コミュニティセンター,日新地区コミュニティ協議会,○,△,087-834-9911,△
jp.takamatsu.smartcity.shelter.EvacuationSpace.63,高松市扇町2-8-7,93,○,1.5,○,×,○,△,○,地域振興課,34.34451167,134.03650806,二番丁コミュニティセンター,二番丁地区コミュニティ協議会,○,△,087-822-3556,△
jp.takamatsu.smartcity.shelter.EvacuationSpace.64,高松市番町二丁目３－５,94,○,2.8,○,×,○,○,○,地域振興課,34.34355083,134.04488778,四番丁コミュニティセンター,四番丁コミュニティ協議会,○,△,087-851-8479,○
jp.takamatsu.smartcity.shelter.EvacuationSpace.65,高松市宮脇町1-6-18,111,○,2.5,○,×,○,△,△,地域振興課,34.33958444,134.03529167,亀阜コミュニティセンター,亀阜校区コミュニティ協議会,○,△,087-834-0797,○
jp.takamatsu.smartcity.shelter.EvacuationSpace.66,高松市栗林町3-2-12,86,○,7.7,○,×,○,○,○,地域振興課,34.32886944,134.04799917,栗林コミュニティセンター,栗林校区コミュニティ協議会,○,○,087-835-5399,○
jp.takamatsu.smartcity.shelter.EvacuationSpace.67,高松市観光通2-8-9,112,○,1.7,○,×,○,○,○,地域振興課,34.33607972,134.05686194,花園コミュニティセンター,花園地区コミュニティ協議会,○,△,087-835-5398,○
jp.takamatsu.smartcity.shelter.EvacuationSpace.68,高松市松福町2-15-24,123,○,1.5,○,×,○,○,△,地域振興課,34.34022667,134.06502778,松島コミュニティセンター,松島地区コミュニティ協議会,○,△,087-821-0435,△
jp.takamatsu.smartcity.shelter.EvacuationSpace.69,高松市築地町14-1,122,○,1.6,○,×,○,○,△,地域振興課,34.34125139,134.05681472,築地コミュニティセンター,築地地区コミュニティ協議会,○,△,087-862-1166,△
jp.takamatsu.smartcity.shelter.EvacuationSpace.70,高松市城東町1-1-47,95,○,2.2,○,×,○,○,○,地域振興課,34.34741472,134.05595611,新塩屋町コミュニティセンター,新塩屋町地区コミュニティ協議会,○,△,087-822-1066,△
jp.takamatsu.smartcity.shelter.EvacuationSpace.71,高松市田村町303-1,84,○,18.4,○,×,○,○,○,地域振興課,34.31382333,134.03022889,鶴尾コミュニティセンター,鶴尾校区コミュニティ協議会,○,○,087-866-3176,○
jp.takamatsu.smartcity.shelter.EvacuationSpace.72,高松市伏石町2016-37,100,○,8.8,○,×,○,○,○,地域振興課,34.318641, 134.054399,太田コミュニティセンター,太田地区コミュニティ協議会,○,○,087-867-1139,○
jp.takamatsu.smartcity.shelter.EvacuationSpace.73,高松市太田上町1045-2,81,○,23.1,○,×,○,○,○,地域振興課,34.30185833,134.04128111,太田南コミュニティセンター,太田南地区コミュニティ協議会,○,○,087-865-9947,○
jp.takamatsu.smartcity.shelter.EvacuationSpace.74,高松市松縄町1108-1,81,○,8.4,○,×,○,○,○,地域振興課,34.31384917,134.06404833,太田中央コミュニティセンター,太田地区コミュニティ協議会,○,○,087-867-3396,○
jp.takamatsu.smartcity.shelter.EvacuationSpace.75,高松市木太町3480-2,104,○,20.6,○,×,○,△,○,地域振興課,34.326186,134.076753,木太コミュニティセンター,木太地区コミュニティ協議会,○,△,087-834-5547,△
jp.takamatsu.smartcity.shelter.EvacuationSpace.76,高松市木太町2603,71,○,1,○,×,○,△,○,地域振興課,34.33559694,134.07944333,木太北部コミュニティセンター,木太地区コミュニティ協議会,○,△,087-831-9000,△
jp.takamatsu.smartcity.shelter.EvacuationSpace.77,高松市木太町1486,74,○,3,○,×,○,△,○,地域振興課,34.31924611,134.07618028,木太南コミュニティセンター,木太地区コミュニティ協議会,○,△,087-865-4273,○
jp.takamatsu.smartcity.shelter.EvacuationSpace.78,高松市高松町10-20,90,○,2.9,○,×,○,×,×,地域振興課,34.33566417,134.10751306,古高松コミュニティセンター,古高松地区コミュニティ協議会,○,×,087-841-6262,○
jp.takamatsu.smartcity.shelter.EvacuationSpace.79,高松市春日町782-2,69,○,2.4,○,×,○,×,○,地域振興課,34.32697333,134.09171194,古高松南コミュニティセンター,古高松地区コミュニティ協議会,○,△,087-841-2186,△
jp.takamatsu.smartcity.shelter.EvacuationSpace.80,高松市屋島中町449-1,61,○,2.2,○,×,○,△,△,地域振興課,34.34371056,134.10129944,屋島コミュニティセンター,屋島地区コミュニティ協議会,○,△,087-841-6927,○
jp.takamatsu.smartcity.shelter.EvacuationSpace.81,高松市屋島西町2483-2,80,○,3,○,×,○,△,○,地域振興課,34.35227583,134.08916139,屋島西コミュニティセンター,屋島地区コミュニティ協議会,○,△,087-843-2961,○
jp.takamatsu.smartcity.shelter.EvacuationSpace.82,高松市屋島東町928,75,○,10.5,○,×,○,○,○,地域振興課,34.35496778,134.11591722,屋島東コミュニティセンター,屋島地区コミュニティ協議会,○,○,087-841-9931,○
jp.takamatsu.smartcity.shelter.EvacuationSpace.83,高松市前田東町838,77,○,13.5,○,×,○,○,△,地域振興課,34.29657722,134.11259444,前田コミュニティセンター,前田校区コミュニティ協議会,○,○,087-847-6168,○
jp.takamatsu.smartcity.shelter.EvacuationSpace.84,高松市元山町136-4,118,○,8.6,○,×,○,△,△,地域振興課,34.30697278,134.08946833,川添コミュニティセンター,川添地区コミュニティ協議会,○,○,087-847-5979,○
jp.takamatsu.smartcity.shelter.EvacuationSpace.85,高松市林町329-1,113,○,13.2,○,×,○,○,○,地域振興課,34.29767,134.07622,林コミュニティセンター,林地区コミュニティ協議会,○,○,087-866-3405,○
jp.takamatsu.smartcity.shelter.EvacuationSpace.86,高松市三谷町1201-1,143,○,26,○,×,○,○,○,地域振興課,34.27796722,134.06945722,三谷コミュニティセンター,三谷地区コミュニティ協議会,○,○,087-889-4938,○
jp.takamatsu.smartcity.shelter.EvacuationSpace.87,高松市仏生山町乙45-4,121,○,36.6,○,×,○,○,○,地域振興課,34.27850556,134.04784528,仏生山コミュニティセンター,仏生山地区コミュニティ協議会,○,○,087-889-4955,○
jp.takamatsu.smartcity.shelter.EvacuationSpace.88,高松市多肥上町433-5,89,○,26.9,○,×,○,○,○,地域振興課,34.29044611,134.05146667,多肥コミュニティセンター,多肥地区コミュニティ協議会,○,○,087-889-4956,○
jp.takamatsu.smartcity.shelter.EvacuationSpace.89,高松市一宮町838-1,153,○,33.9,○,×,○,△,○,地域振興課,34.29067333,134.02893556,一宮コミュニティセンター,一宮地区コミュニティ協議会,○,○,087-886-4793,○
jp.takamatsu.smartcity.shelter.EvacuationSpace.90,高松市円座町1622-1,90,○,38.1,○,×,○,△,○,地域振興課,34.28543722,134.00547111,円座コミュニティセンター,円座校区コミュニティ協議会,○,○,087-886-4993,○
jp.takamatsu.smartcity.shelter.EvacuationSpace.91,高松市川部町486-3,130,○,52.5,○,×,○,△,○,地域振興課,34.269316,134.009945,川岡コミュニティセンター,川岡校区コミュニティ協議会,○,○,087-886-4963,○
jp.takamatsu.smartcity.shelter.EvacuationSpace.92,高松市御厩町775-1,99,○,24.1,○,×,○,△,○,地域振興課,34.30092139,133.99466861,檀紙コミュニティセンター,檀紙地区コミュニティ協議会,○,○,087-886-4955,○
jp.takamatsu.smartcity.shelter.EvacuationSpace.93,高松市鶴市町356-3,131,○,7.1,○,×,△,△,○,地域振興課,34.32894333,134.00571417,弦打コミュニティセンター,弦打校区コミュニティ協議会,○,○,087-882-0285,○
jp.takamatsu.smartcity.shelter.EvacuationSpace.94,高松市鬼無町佐藤31-3,127,○,12.8,○,×,○,○,○,地域振興課,34.32707667,133.99324306,鬼無コミュニティセンター,鬼無地区コミュニティ協議会,○,○,087-882-0875,○
jp.takamatsu.smartcity.shelter.EvacuationSpace.95,高松市香西本町476-1,130,○,3.6,○,×,○,○,○,地域振興課,34.34682444,133.99622,香西コミュニティセンター,香西地区コミュニティ協議会,○,△,087-882-0294,○
jp.takamatsu.smartcity.shelter.EvacuationSpace.96,高松市生島町353-1,230,○,24.2,○,×,○,○,○,地域振興課,34.35870861,133.96876639,下笠居コミュニティセンター,下笠居地区コミュニティ協議会,○,○,087-882-0856,○
jp.takamatsu.smartcity.shelter.EvacuationSpace.97,高松市女木町203-1,61,○,7.7,○,×,○,○,○,地域振興課,34.39210389,134.0517525,女木コミュニティセンター,女木地区コミュニティ協議会,○,○,087-873-0105,○
jp.takamatsu.smartcity.shelter.EvacuationSpace.98,高松市男木町1988,62,○,2.4,○,×,○,○,○,地域振興課,34.422622,134.054127,男木コミュニティセンター,男木地区コミュニティ協議会,○,×,087-873-0002,○
jp.takamatsu.smartcity.shelter.EvacuationSpace.99,高松市川島本町191-2,123,○,21.2,○,×,○,○,○,地域振興課,34.27605389,134.08523639,川島コミュニティセンター,川島校区コミュニティ協議会,○,○,087-848-0054,○
jp.takamatsu.smartcity.shelter.EvacuationSpace.100,高松市西植田町2247-1,73,○,41.8,○,×,○,○,○,地域振興課,34.24028,134.07882694,西植田コミュニティセンター,植田校区コミュニティ協議会,○,○,087-849-0101,○
jp.takamatsu.smartcity.shelter.EvacuationSpace.101,高松市東植田町1825-1,92,○,51.8,○,×,○,○,○,地域振興課,34.23821417,134.09904472,東植田コミュニティセンター,東植田校区コミュニティ協議会,○,○,087-849-0104,○
jp.takamatsu.smartcity.shelter.EvacuationSpace.102,高松市牟礼町牟礼1583-1,550,○,42.2,○,×,○,○,○,県高校教育課,34.34605,134.1427625,高松北高等（中）学校（体育館）,むれコミュニティ協議会,△,○,087-845-2155,○
jp.takamatsu.smartcity.shelter.EvacuationSpace.103,高松市牟礼町牟礼46-2,452,○,31.8,○,○,○,○,○,教育総務課,34.33900083,134.14328222,牟礼中学校,むれコミュニティ協議会,△,○,087-845-9604,○
jp.takamatsu.smartcity.shelter.EvacuationSpace.104,高松市牟礼町牟礼302-1,149,○,14.8,○,×,○,○,○,地域振興課,34.33782306,134.13914083,牟礼コミュニティセンター,むれコミュニティ協議会,○,○,087-845-4111,○
jp.takamatsu.smartcity.shelter.EvacuationSpace.105,あ高松市牟礼町牟礼152-10,1100,○,37.9,○,×,○,○,○,スポーツ振興課,34.34252806,134.14306528,牟礼総合体育館,むれコミュニティ協議会,×,○,087-845-7060,○
jp.takamatsu.smartcity.shelter.EvacuationSpace.106,高松市牟礼町牟礼2900-1,318,○,12.6,○,○,○,○,○,教育総務課,34.35012694,134.12606667,牟礼北小学校,むれコミュニティ協議会,○,○,087-845-5742,○
jp.takamatsu.smartcity.shelter.EvacuationSpace.107,高松市牟礼町大町1560,348,○,15.1,○,○,○,○,○,教育総務課,34.33645944,134.14152389,牟礼小学校,むれコミュニティ協議会,○,○,087-845-9239,○
jp.takamatsu.smartcity.shelter.EvacuationSpace.108,高松市牟礼町原1019-8,360,○,27.6,○,○,○,○,○,スポーツ振興課,34.32021139,134.15081806,牟礼中央公園運動センター,むれコミュニティ協議会,○,○,087-845-1563,○
jp.takamatsu.smartcity.shelter.EvacuationSpace.109,高松市牟礼町大町1115-1,261,○,13.3,○,○,○,○,○,教育総務課,34.33318222,134.15272861,牟礼南小学校,むれコミュニティ協議会,○,○,087-845-9324,○
jp.takamatsu.smartcity.shelter.EvacuationSpace.110,高松市牟礼町原570-1,60,○,7.4,,×,○,○,○,こども園運営課,34.32863278,134.15596194,はらこども園,むれコミュニティ協議会,○,○,087-845-0234,○
jp.takamatsu.smartcity.shelter.EvacuationSpace.111,高松市牟礼町大町1463-2,121,○,13.6,○,×,○,○,○,地域振興課,34.33609278,134.14272944,大町コミュニティセンター,むれコミュニティ協議会,○,○,087-870-1306,○
jp.takamatsu.smartcity.shelter.EvacuationSpace.112,高松市牟礼町原281-1,420,○,21.5,○,×,○,○,○,県立保健医療大学,34.32183361,134.1581675,香川県立保健医療大学（体育館）,むれコミュニティ協議会,○,○,087-870-1212,○
jp.takamatsu.smartcity.shelter.EvacuationSpace.113,高松市庵治町6391-17,87,○,3.2,,×,○,○,○,牟礼総合センター,34.36844139,134.12065806,深間ふれあいセンター,庵治地区コミュニティ協議会,×,○,-,○
jp.takamatsu.smartcity.shelter.EvacuationSpace.114,高松市庵治町691-1,441,○,2.7,○,○,○,○,○,教育総務課,34.38324278,134.13077056,庵治中学校,庵治地区コミュニティ協議会,○,△,087-871-2716,○
jp.takamatsu.smartcity.shelter.EvacuationSpace.115,高松市庵治町790-1,243,○,2.1,○,○,○,○,○,教育総務課,34.3844425,134.13185389,庵治小学校,庵治地区コミュニティ協議会,○,△,087-871-2581,○
jp.takamatsu.smartcity.shelter.EvacuationSpace.116,高松市庵治町888-1,226,○,3.3,○,×,○,○,○,地域振興課,34.3853175,134.12994833,庵治コミュニティセンター・庵治武道館,庵治地区コミュニティ協議会,○,△,087-871-4162,○
jp.takamatsu.smartcity.shelter.EvacuationSpace.117,高松市庵治町866-4,387,○,3.1,○,×,○,○,○,教育総務課,34.38540639,134.13037611,庵治小学校第二体育館,庵治地区コミュニティ協議会,○,△,087-871-2581,○
jp.takamatsu.smartcity.shelter.EvacuationSpace.118,高松市庵治町6392-14,98,○,2.7,,×,○,○,○,牟礼総合センター,34.38297056,134.12712111,庵治やすらぎ会館,庵治地区コミュニティ協議会,○,△,087-871-5111,○
jp.takamatsu.smartcity.shelter.EvacuationSpace.119,高松市庵治町1391,80,○,36.2,,×,○,○,○,市民やすらぎ課,34.39073917,134.13615889,庵治斎場,庵治地区コミュニティ協議会,○,○,087-871-2539,○
jp.takamatsu.smartcity.shelter.EvacuationSpace.120,高松市庵治町6034-1,182,-,2.7,○,-,-,-,-,教育総務課,34.40445917,134.10570278,庵治第二小学校,庵治地区コミュニティ協議会,-,-,087-871-5110,-
jp.takamatsu.smartcity.shelter.EvacuationSpace.121,高松市香川町大野1329-1,108,○,56.5,○,×,○,○,○,地域振興課,34.26717583,134.02466444,大野コミュニティセンター,大野校区コミュニティ協議会,○,○,087-886-1960,○
jp.takamatsu.smartcity.shelter.EvacuationSpace.122,高松市香川町大野1045-1,336,○,57,○,○,○,○,○,教育総務課,34.26665917,134.02648639,大野小学校,大野校区コミュニティ協議会,○,○,087-885-2165,○
jp.takamatsu.smartcity.shelter.EvacuationSpace.123,高松市香川町浅野3088,336,○,74.9,○,○,○,○,○,教育総務課,34.25967139,134.04174639,浅野小学校,浅野校区コミュニティ協議会,△,○,087-889-0215,○
jp.takamatsu.smartcity.shelter.EvacuationSpace.124,高松市香川町浅野826-2,93,○,64.6,○,×,○,○,○,地域振興課,34.25664111,134.03568028,浅野コミュニティセンター,浅野校区コミュニティ協議会,○,○,087-888-2537,○
jp.takamatsu.smartcity.shelter.EvacuationSpace.125,高松市香川町川東下1917-1,1136,○,68.8,○,×,○,○,○,スポーツ振興課,34.25499944,134.02794222,香川総合体育館,川東校区コミュニティ協議会,○,○,087-879-8000,○
jp.takamatsu.smartcity.shelter.EvacuationSpace.126,高松市香川町川東上1865-13,315,○,87.1,○,×,○,○,○,地域振興課,34.24133444,134.03397833,川東コミュニティセンター,川東校区コミュニティ協議会,○,○,087-879-4215,○
jp.takamatsu.smartcity.shelter.EvacuationSpace.127,高松市香川町川東上1865-8,336,○,87.1,○,○,○,○,○,教育総務課,34.24127611,134.03575306,川東小学校,川東校区コミュニティ協議会,○,○,087-879-2012,○
jp.takamatsu.smartcity.shelter.EvacuationSpace.128,高松市香川町川東上604-85,200,○,133.8,,×,○,○,○,香川総合センター,34.22676417,134.03776444,香川町グリーンセンター,川東校区コミュニティ協議会,×,○,087-879-5597,○
jp.takamatsu.smartcity.shelter.EvacuationSpace.129,高松市香川町安原下第３号194-1,179,○,118,,×,○,○,○,農林水産課,34.21197667,134.03136833,香川町多目的研修集会施設,川東校区コミュニティ協議会,×,○,087-879-7153,○
jp.takamatsu.smartcity.shelter.EvacuationSpace.130,高松市香川町東谷159-1,56,○,139.5,,×,○,○,△,農林水産課,34.21657389,134.05046917,香川町高齢者活動促進センター,川東校区コミュニティ協議会,○,○,087-879-7310,○
jp.takamatsu.smartcity.shelter.EvacuationSpace.131,高松市香川町東谷873-3,31,○,179.3,○,×,○,○,△,地域振興課,34.20461444,134.06167694,東谷コミュニティセンター,川東校区コミュニティ協議会,×,○,087-879-7997,○
jp.takamatsu.smartcity.shelter.EvacuationSpace.132,高松市香南町横井1008,285,○,93,○,○,○,○,○,教育総務課,34.24104222,134.00912222,香南小学校,香南地区コミュニティ協議会,○,○,087-879-2269,○
jp.takamatsu.smartcity.shelter.EvacuationSpace.133,高松市香南町横井801,485,○,89.1,○,○,○,○,○,教育総務課,34.24334472,134.00856361,香南中学校,香南地区コミュニティ協議会,○,○,087-879-2064,○
jp.takamatsu.smartcity.shelter.EvacuationSpace.134,高松市香南町由佐1167,141,○,82.1,○,×,○,○,○,地域振興課,34.23536528,134.01164139,香南コミュニティセンター,香南地区コミュニティ協議会,○,○,087-879-8993,○
jp.takamatsu.smartcity.shelter.EvacuationSpace.135,高松市香南町由佐357-2,150,○,83.3,○,×,○,○,○,農林水産課,34.24024556,134.01889917,由佐農村環境改善センター,香南地区コミュニティ協議会,○,○,087-879-0115,○
jp.takamatsu.smartcity.shelter.EvacuationSpace.136,高松市香南町池内522-1,165,○,84.3,○,×,○,○,○,農林水産課,34.245175,134.00035333,池西農村環境改善センター,香南地区コミュニティ協議会,○,○,087-879-3788,○
jp.takamatsu.smartcity.shelter.EvacuationSpace.137,高松市塩江町安原下第２号1645,189,○,139.4,○,×,○,○,○,地域振興課,34.1963675,134.04155944,塩江コミュニティセンター,塩江地区コミュニティ協議会,×,○,087-897-0137,○
jp.takamatsu.smartcity.shelter.EvacuationSpace.138,高松市塩江町安原下第２号1684,225,○,137,○,○,○,○,○,地域振興課,34.19820889,134.04040667,安原小学校跡施設,塩江地区コミュニティ協議会,×,○,087-839-2611,○
jp.takamatsu.smartcity.shelter.EvacuationSpace.139,高松市塩江町安原下第２号857,,○,379,,×,○,○,○,教育総務課,34.15596056,134.02463722,安原小学校　戸石分校跡施設,塩江地区コミュニティ協議会,×,○,087-839-2611,○
jp.takamatsu.smartcity.shelter.EvacuationSpace.140,高松市塩江町安原上東３９４番地の２,24,○,206,,×,○,○,○,香川総合センター,34.1697325,134.08280667,塩江支所　塩江連絡事務所,塩江地区コミュニティ協議会,△,○,087-893-0220,○
jp.takamatsu.smartcity.shelter.EvacuationSpace.141,高松市塩江町安原上東365,20,○,215,○,○,○,○,○,地域振興課,34.17048806,134.08330944,塩江小学校跡施設,塩江地区コミュニティ協議会,×,○,087-839-2611,○
jp.takamatsu.smartcity.shelter.EvacuationSpace.142,高松市塩江町安原上東字椛川2173-8,49,○,265,,×,○,○,○,法人　椛川地域,34.15379861,134.10119167,椛川集会所,塩江地区コミュニティ協議会,○,○,087-839-2184,○
jp.takamatsu.smartcity.shelter.EvacuationSpace.143,高松市塩江町安原上231,897,○,175,○,○,○,○,△,教育総務課,34.18143389,134.07422111,塩江小・中学校,塩江地区コミュニティ協議会,○,○,087-893-0032,○
jp.takamatsu.smartcity.shelter.EvacuationSpace.144,高松市塩江町上西乙549,16,○,276,,×,○,○,○,香川総合センター,34.15046528,134.07660778,塩江支所　上西連絡事務所,塩江地区コミュニティ協議会,○,○,087-893-0311,○
jp.takamatsu.smartcity.shelter.EvacuationSpace.145,高松市塩江町上西乙461,143,○,266,○,○,○,○,○,地域振興課,34.15226222,134.07636056,上西小学校跡施設,塩江地区コミュニティ協議会,○,○,087-839-2611,○
jp.takamatsu.smartcity.shelter.EvacuationSpace.146,高松市塩江町上西甲９４７番地３,38,○,392,,×,○,○,○,香川総合センター,34.12607917,134.07372833,西山ふれあいセンター,塩江地区コミュニティ協議会,×,○,087-893-0192,○
jp.takamatsu.smartcity.shelter.EvacuationSpace.147,高松市国分寺町新居1131-1,297,○,23.5,○,○,○,△,△,教育総務課,34.29691,133.96432139,国分寺中学校,国分寺北部校区コミュニティ協議会,○,○,087-874-0031,○
jp.takamatsu.smartcity.shelter.EvacuationSpace.148,高松市国分寺町新居1880,383,○,26.5,○,○,○,○,○,教育総務課,34.30594222,133.9631825,国分寺北部小学校,国分寺北部校区コミュニティ協議会,○,○,087-874-1154,○
jp.takamatsu.smartcity.shelter.EvacuationSpace.149,高松市国分寺町新居1840-6,294,○,26,○,×,○,○,○,地域振興課,34.30537556,133.96234361,国分寺北部コミュニティセンター,国分寺北部校区コミュニティ協議会,○,○,087-874-5805,○
jp.takamatsu.smartcity.shelter.EvacuationSpace.150,高松市国分寺町新居1155-7,380,○,23.6,○,×,○,△,△,教育総務課,34.29734611,133.96598806,国分寺中学校第二体育館,国分寺北部校区コミュニティ協議会,○,○,087-874-4560,○
jp.takamatsu.smartcity.shelter.EvacuationSpace.151,高松市国分寺町新居3371-1,70,○,31,,×,○,○,○,子育て支援課,34.30795889,133.97181222,新居東児童館,国分寺北部校区コミュニティ協議会,○,○,087-874-6705,○
jp.takamatsu.smartcity.shelter.EvacuationSpace.152,高松市国分寺町新居1423-1,30,○,23,○,×,○,△,×,人権啓発課,34.29960139,133.95921083,国分寺文化センター,国分寺北部校区コミュニティ協議会,○,○,087-874-4519,○
jp.takamatsu.smartcity.shelter.EvacuationSpace.153,高松市国分寺町国分2150-7,70,○,34.2,,×,○,○,○,子育て支援課,34.30291167,133.94646167,国分児童館,国分寺北部校区コミュニティ協議会,○,○,087-874-3830,○
jp.takamatsu.smartcity.shelter.EvacuationSpace.154,高松市国分寺町福家甲3005,405,○,28.9,○,○,○,△,△,教育総務課,34.28308639,133.96142222,国分寺南部小学校,国分寺南部校区コミュニティ協議会,○,○,087-874-1160,○
jp.takamatsu.smartcity.shelter.EvacuationSpace.155,高松市国分寺町福家甲3106-3,137,○,28.6,○,×,○,△,△,地域振興課,34.28410306,133.96101111,国分寺南部コミュニティセンター,国分寺南部校区コミュニティ協議会,○,○,087-874-1116,○
jp.takamatsu.smartcity.shelter.EvacuationSpace.156,高松市国分寺町福家甲3005,180,○,28.4,○,×,○,×,△,スポーツ振興課,34.28308639,133.96142222,国分寺勤労青少年ホーム,国分寺南部校区コミュニティ協議会,○,○,087-874-3982,○
jp.takamatsu.smartcity.shelter.EvacuationSpace.157,高松市国分寺町福家甲1951-1,70,○,42.9,,×,○,○,○,子育て支援課,34.27412944,133.9727575,福家児童館,国分寺南部校区コミュニティ協議会,○,○,087-874-4954,○
jp.takamatsu.smartcity.shelter.EvacuationSpace.158,高松市国分寺町新名430-2,135,○,24.4,,×,○,△,△,国分寺総合センター,34.29664333,133.96011361,国分寺会館,国分寺南部校区コミュニティ協議会,○,○,087-874-1111,○
jp.takamatsu.smartcity.shelter.EvacuationSpace.159,高松市国分寺町国分1009,384,○,31.5,○,×,○,○,△,香川県青年センター,34.29932583,133.94212889,香川県青年センター,国分寺北部校区コミュニティ協議会,○,○,087-874-0713,○
jp.takamatsu.smartcity.shelter.EvacuationSpace.160,高松市生島町689-11,250,○,3.1,,×,○,○,○,香川県消防学校,34.36483306,133.96951611,香川県消防学校,下笠居地区コミュニティ協議会,○,△,087-881-3281,○
jp.takamatsu.smartcity.shelter.EvacuationSpace.161,高松市番町2-9-30,715,○,2.6,○,×,○,○,○,県高校教育課,34.34431472,134.0423575,高松工芸高等学校（体育館）,二番丁地区コミュニティ協議会,○,△,087-851-4144,○
jp.takamatsu.smartcity.shelter.EvacuationSpace.162,高松市番町3-1-1,700,○,3.5,○,×,○,○,○,県高校教育課,34.34147611,134.04409639,高松高等学校（体育館）,四番丁コミュニティ協議会,○,△,087-831-7251,○
jp.takamatsu.smartcity.shelter.EvacuationSpace.163,高松市松島町1-18-54,610,○,1.5,○,×,○,○,△,県高校教育課,34.33839083,134.059245,高松商業高等学校（体育館）,松島地区コミュニティ協議会,○,△,087-833-1971,△
jp.takamatsu.smartcity.shelter.EvacuationSpace.164,高松市幸町1-1,400,○,2.7,○,×,○,△,○,香川大学,34.34262028,134.03753861,香川大学（経済学部構内体育館）,亀阜校区コミュニティ協議会,○,△,087-832-1000,○
jp.takamatsu.smartcity.shelter.EvacuationSpace.165,高松市太田上町513-1,200,○,26.3,,－,－,－,－,香川県聾学校,34.29744222,134.04150361,香川県立聾学校（体育館）※地震時のみ使用,太田南地区コミュニティ協議会,－,－,087-865-4492,－
jp.takamatsu.smartcity.shelter.EvacuationSpace.166,高松市片原町11-1むうぶ片原町ビル内,50,○,2.1,○,×,○,○,○,生涯学習課,34.34546194,134.05345361,高松市生涯学習センター（まなびCAN）,新塩屋町地区コミュニティ協議会,○,△,087-811-6222,△
jp.takamatsu.smartcity.shelter.EvacuationSpace.167,高松市福岡町4-36-1,1445,○,2.5,○,×,○,○,△,スポーツ振興課,34.34199056,134.07412694,高松市総合体育館,松島地区コミュニティ協議会,○,△,087-822-0211,△
jp.takamatsu.smartcity.shelter.EvacuationSpace.168,高松市前田東町690-1,500,○,13.1,○,×,×,×,○,県高校教育課,34.29206944,134.11143639,高松東高校（体育館）,前田校区コミュニティ協議会,○,○,087-847-6221,○
jp.takamatsu.smartcity.shelter.EvacuationSpace.169,高松市勅使町355,800,○,26.5,○,×,○,○,○,独立行政法人　国立高等専門学校機構,34.31115389,134.01108083,香川高等専門学校（体育館）,鶴尾校区コミュニティ協議会,○,○,087-869-3811,○
jp.takamatsu.smartcity.shelter.EvacuationSpace.170,高松市国分寺町柏原41,45,×,28.7,,×,○,○,○,県住宅課,34.290355,133.95202833,香川県営住宅国分寺団地集会場,国分寺南部校区コミュニティ協議会,○,○,-,○
jp.takamatsu.smartcity.shelter.EvacuationSpace.171,高松市香川町浅野1188,540,○,98,○,○,○,○,○,教育総務課,34.25265806,134.03109194,香川第一中学校,浅野校区コミュニティ協議会,○,○,087-879-2131,○
jp.takamatsu.smartcity.shelter.EvacuationSpace.172,高松市三名町5-6,119,○,36.1,,×,○,○,○,香川県農業共済組合,34.28533528,134.0381625,香川県農業共済組合,一宮地区コミュニティ協議会,○,○,087-888-2121,○
jp.takamatsu.smartcity.shelter.EvacuationSpace.173,高松市林町2217-20,240,○,22,○,×,○,○,○,香川大学,34.29277111,134.06300722,香川大学創造工学部,林地区コミュニティ協議会,○,○,087-864-2000,○
jp.takamatsu.smartcity.shelter.EvacuationSpace.174,あ高松市新田町甲2723-2,136,○,2.7,,×,○,△,△,介護老人保健施設サンライズ屋島,34.3292175,134.09928361,介護老人保健施設サンライズ屋島,古高松地区コミュニティ協議会,○,△,087-841-8090,○
jp.takamatsu.smartcity.shelter.EvacuationSpace.175,高松市玉藻町2-1,,○,2.6,,×,○,○,○,文化財課,34.35068639,134.05094278,玉藻公園,四番丁コミュニティ協議会,○,×,087-851-1521,×
jp.takamatsu.smartcity.shelter.EvacuationSpace.176,高松市番町１丁目11-1,,○,4.8,,×,○,○,○,公園緑地課,34.34194556,134.04743222,中央公園,四番丁コミュニティ協議会,○,△,-,×
jp.takamatsu.smartcity.shelter.EvacuationSpace.177,高松市今里町１丁目20,,○,4.8,,○,○,×,○,公園緑地課,34.32530333,134.05862611,今里中央公園,太田地区コミュニティ協議会,○,○,-,×
jp.takamatsu.smartcity.shelter.EvacuationSpace.178,高松市伏石町2077,,○,12.3,,○,○,○,○,公園緑地課,34.31414,134.05510,伏石中央公園,太田地区コミュニティ協議会,○,○,-,×
jp.takamatsu.smartcity.shelter.EvacuationSpace.179,高松市木太町5052,,○,6.5,,○,○,○,○,公園緑地課,34.32491472,134.06983917,木太中央公園,木太地区コミュニティ協議会,○,○,-,×
jp.takamatsu.smartcity.shelter.EvacuationSpace.180,高松市高松町1211-28,,○,21.3,,×,○,○,○,公園緑地課,34.33156222,134.11672083,菱の池公園,古高松地区コミュニティ協議会,○,○,-,○
jp.takamatsu.smartcity.shelter.EvacuationSpace.181,高松市一宮町1227,,○,29.9,,×,○,○,○,土地改良課,34.28493222,134.02899111,一宮新池農村公園,一宮地区コミュニティ協議会,○,○,-,○
jp.takamatsu.smartcity.shelter.EvacuationSpace.182,高松市牟礼町原631-7,,○,7.5,,×,○,○,○,観光交流課,34.33351,134.15671167,房前公園・源平の里むれ（道の駅）,むれコミュニティ協議会,○,○,087-845-6080,○
jp.takamatsu.smartcity.shelter.EvacuationSpace.183,高松市峰山町1838-37,,○,171.3,,×,○,○,○,公園緑地課,34.3300825,134.02583722,峰山公園,亀阜校区コミュニティ協議会,○,○,087-834-7297,○
jp.takamatsu.smartcity.shelter.EvacuationSpace.184,高松市高松町1347-1,,○,51.3,,○,○,○,○,公園緑地課,34.32904333,134.12460361,東部運動公園,古高松地区コミュニティ協議会,○,○,087-843-9446,○
jp.takamatsu.smartcity.shelter.EvacuationSpace.185,高松市仏生山町甲2654-1,,○,46.4,,○,○,○,○,公園緑地課,34.27103972,134.04834833,仏生山公園,仏生山地区コミュニティ協議会,○,○,087-881-5011,○
jp.takamatsu.smartcity.shelter.EvacuationSpace.186,高松市林町2581,,○,15.5,,○,○,○,○,公園緑地課,34.30253,134.06385,長池中央公園,林地区コミュニティ協議会,○,○,-,○
jp.takamatsu.smartcity.shelter.EvacuationSpace.187,高松市多肥上町2049-1,,○,32.4,,×,○,○,○,公園緑地課,34.28938222,134.05329722,彦作池公園,多肥地区コミュニティ協議会,○,○,-,○
jp.takamatsu.smartcity.shelter.EvacuationSpace.188,高松市香南町横井796-1,,○,90.1,,○,○,○,○,公園緑地課,34.24461694,134.00551111,月見ヶ原公園,香南地区コミュニティ協議会,○,○,-,○
jp.takamatsu.smartcity.shelter.EvacuationSpace.189,高松市牟礼町原1019-8,,○,45.8,,○,○,○,○,公園緑地課,34.32021139,134.15081806,牟礼中央公園,むれコミュニティ協議会,○,○,-,○
jp.takamatsu.smartcity.shelter.EvacuationSpace.190,高松市牟礼町牟礼1355-1,,○,45.5,,○,○,○,○,公園緑地課,34.34749417,134.13416333,御山公園,むれコミュニティ協議会,○,○,087-845-5585,○
jp.takamatsu.smartcity.shelter.EvacuationSpace.191,高松市国分寺町国分2530-2,,○,49.1,,×,○,○,○,公園緑地課,34.3081,133.95190556,如意輪寺公園,国分寺北部校区コミュニティ協議会,○,○,-,○
jp.takamatsu.smartcity.shelter.EvacuationSpace.192,高松市国分寺町新名2069-1,,○,55.7,,○,○,○,○,公園緑地課,34.27257361,133.94997917,橘ノ丘公園,国分寺南部校区コミュニティ協議会,×,○,-,○
jp.takamatsu.smartcity.shelter.EvacuationSpace.193,高松市春日町902-1,121,○,1.9,,×,△,×,○,トヨタカローラ香川株式会社,34.32746,134.09237,トヨタカローラ香川株式会社春日店,古高松地区コミュニティ協議会,○,△,087-805-2600,△
